CCSDS_OMM_VERS = 2.0
CREATION_DATE  = 
ORIGINATOR     = 

OBJECT_NAME    = STARLINK-37042
OBJECT_ID      = 2026-055E
CENTER_NAME    = EARTH
REF_FRAME      = TEME
TIME_SYSTEM    = UTC
MEAN_ELEMENT_THEORY = SGP/SGP4

EPOCH          = 2026-04-03T12:00:01.999296
MEAN_MOTION    = 15.81200953
ECCENTRICITY   = .0000606
INCLINATION    = 53.1591
RA_OF_ASC_NODE = 212.9229
ARG_OF_PERICENTER = 81.4115
MEAN_ANOMALY   = 5.1457

EPHEMERIS_TYPE = 0
CLASSIFICATION_TYPE = U
NORAD_CAT_ID   = 68266
ELEMENT_SET_NO = 999
REV_AT_EPOCH   = 362
BSTAR          = -.25126E-2
MEAN_MOTION_DOT = -.477344E-2
MEAN_MOTION_DDOT = 0

CCSDS_OMM_VERS = 2.0
CREATION_DATE  = 
ORIGINATOR     = 

OBJECT_NAME    = STARLINK-37103
OBJECT_ID      = 2026-055F
CENTER_NAME    = EARTH
REF_FRAME      = TEME
TIME_SYSTEM    = UTC
MEAN_ELEMENT_THEORY = SGP/SGP4

EPOCH          = 2026-04-03T12:00:01.999296
MEAN_MOTION    = 15.81119412
ECCENTRICITY   = .0001145
INCLINATION    = 53.1591
RA_OF_ASC_NODE = 212.9141
ARG_OF_PERICENTER = 60.2104
MEAN_ANOMALY   = 30.6587

EPHEMERIS_TYPE = 0
CLASSIFICATION_TYPE = U
NORAD_CAT_ID   = 68267
ELEMENT_SET_NO = 999
REV_AT_EPOCH   = 362
BSTAR          = -.20121E-2
MEAN_MOTION_DOT = -.385031E-2
MEAN_MOTION_DDOT = 0

CCSDS_OMM_VERS = 2.0
CREATION_DATE  = 
ORIGINATOR     = 

OBJECT_NAME    = STARLINK-36999
OBJECT_ID      = 2026-055G
CENTER_NAME    = EARTH
REF_FRAME      = TEME
TIME_SYSTEM    = UTC
MEAN_ELEMENT_THEORY = SGP/SGP4

EPOCH          = 2026-04-03T12:00:01.999296
MEAN_MOTION    = 15.81108518
ECCENTRICITY   = .000119
INCLINATION    = 53.1591
RA_OF_ASC_NODE = 212.9051
ARG_OF_PERICENTER = 59.4003
MEAN_ANOMALY   = 35.7481

EPHEMERIS_TYPE = 0
CLASSIFICATION_TYPE = U
NORAD_CAT_ID   = 68268
ELEMENT_SET_NO = 999
REV_AT_EPOCH   = 362
BSTAR          = -.19147E-2
MEAN_MOTION_DOT = -.366991E-2
MEAN_MOTION_DDOT = 0

CCSDS_OMM_VERS = 2.0
CREATION_DATE  = 
ORIGINATOR     = 

OBJECT_NAME    = STARLINK-36962
OBJECT_ID      = 2026-055H
CENTER_NAME    = EARTH
REF_FRAME      = TEME
TIME_SYSTEM    = UTC
MEAN_ELEMENT_THEORY = SGP/SGP4

EPOCH          = 2026-04-03T12:00:01.999296
MEAN_MOTION    = 15.81085121
ECCENTRICITY   = .0001128
INCLINATION    = 53.1591
RA_OF_ASC_NODE = 212.8962
ARG_OF_PERICENTER = 62.1054
MEAN_ANOMALY   = 37.3335

EPHEMERIS_TYPE = 0
CLASSIFICATION_TYPE = U
NORAD_CAT_ID   = 68269
ELEMENT_SET_NO = 999
REV_AT_EPOCH   = 362
BSTAR          = -.17249E-2
MEAN_MOTION_DOT = -.331642E-2
MEAN_MOTION_DDOT = 0

CCSDS_OMM_VERS = 2.0
CREATION_DATE  = 
ORIGINATOR     = 

OBJECT_NAME    = STARLINK-37028
OBJECT_ID      = 2026-055J
CENTER_NAME    = EARTH
REF_FRAME      = TEME
TIME_SYSTEM    = UTC
MEAN_ELEMENT_THEORY = SGP/SGP4

EPOCH          = 2026-04-03T12:00:01.999296
MEAN_MOTION    = 15.80775999
ECCENTRICITY   = .0000414
INCLINATION    = 53.1591
RA_OF_ASC_NODE = 212.8779
ARG_OF_PERICENTER = 132.3450
MEAN_ANOMALY   = 335.7338

EPHEMERIS_TYPE = 0
CLASSIFICATION_TYPE = U
NORAD_CAT_ID   = 68270
ELEMENT_SET_NO = 999
REV_AT_EPOCH   = 362
BSTAR          = .82971E-3
MEAN_MOTION_DOT = .165493E-2
MEAN_MOTION_DDOT = 0

CCSDS_OMM_VERS = 2.0
CREATION_DATE  = 
ORIGINATOR     = 

OBJECT_NAME    = STARLINK-37029
OBJECT_ID      = 2026-055K
CENTER_NAME    = EARTH
REF_FRAME      = TEME
TIME_SYSTEM    = UTC
MEAN_ELEMENT_THEORY = SGP/SGP4

EPOCH          = 2026-04-03T12:00:01.999296
MEAN_MOTION    = 15.80831829
ECCENTRICITY   = .0001415
INCLINATION    = 53.1592
RA_OF_ASC_NODE = 212.8871
ARG_OF_PERICENTER = 80.8369
MEAN_ANOMALY   = 22.9753

EPHEMERIS_TYPE = 0
CLASSIFICATION_TYPE = U
NORAD_CAT_ID   = 68271
ELEMENT_SET_NO = 999
REV_AT_EPOCH   = 362
BSTAR          = .43181E-3
MEAN_MOTION_DOT = .85209E-3
MEAN_MOTION_DDOT = 0

CCSDS_OMM_VERS = 2.0
CREATION_DATE  = 
ORIGINATOR     = 

OBJECT_NAME    = STARLINK-36974
OBJECT_ID      = 2026-055L
CENTER_NAME    = EARTH
REF_FRAME      = TEME
TIME_SYSTEM    = UTC
MEAN_ELEMENT_THEORY = SGP/SGP4

EPOCH          = 2026-04-03T12:00:01.999296
MEAN_MOTION    = 15.80877882
ECCENTRICITY   = .0001141
INCLINATION    = 53.1590
RA_OF_ASC_NODE = 212.8693
ARG_OF_PERICENTER = 68.1184
MEAN_ANOMALY   = 44.2297

EPHEMERIS_TYPE = 0
CLASSIFICATION_TYPE = U
NORAD_CAT_ID   = 68272
ELEMENT_SET_NO = 999
REV_AT_EPOCH   = 362
BSTAR          = .14918E-6
MEAN_MOTION_DOT = -.669E-5
MEAN_MOTION_DDOT = 0

CCSDS_OMM_VERS = 2.0
CREATION_DATE  = 
ORIGINATOR     = 

OBJECT_NAME    = STARLINK-37019
OBJECT_ID      = 2026-055M
CENTER_NAME    = EARTH
REF_FRAME      = TEME
TIME_SYSTEM    = UTC
MEAN_ELEMENT_THEORY = SGP/SGP4

EPOCH          = 2026-04-03T12:00:01.999296
MEAN_MOTION    = 15.80885574
ECCENTRICITY   = .0001179
INCLINATION    = 53.1591
RA_OF_ASC_NODE = 212.8596
ARG_OF_PERICENTER = 71.7736
MEAN_ANOMALY   = 44.8435

EPHEMERIS_TYPE = 0
CLASSIFICATION_TYPE = U
NORAD_CAT_ID   = 68273
ELEMENT_SET_NO = 999
REV_AT_EPOCH   = 362
BSTAR          = -.52074E-4
MEAN_MOTION_DOT = -.1097E-3
MEAN_MOTION_DDOT = 0

CCSDS_OMM_VERS = 2.0
CREATION_DATE  = 
ORIGINATOR     = 

OBJECT_NAME    = STARLINK-37129
OBJECT_ID      = 2026-055N
CENTER_NAME    = EARTH
REF_FRAME      = TEME
TIME_SYSTEM    = UTC
MEAN_ELEMENT_THEORY = SGP/SGP4

EPOCH          = 2026-04-03T12:00:01.999296
MEAN_MOTION    = 15.80874144
ECCENTRICITY   = .0001412
INCLINATION    = 53.1592
RA_OF_ASC_NODE = 212.8508
ARG_OF_PERICENTER = 73.4307
MEAN_ANOMALY   = 47.4629

EPHEMERIS_TYPE = 0
CLASSIFICATION_TYPE = U
NORAD_CAT_ID   = 68274
ELEMENT_SET_NO = 999
REV_AT_EPOCH   = 362
BSTAR          = .36492E-4
MEAN_MOTION_DOT = .6509E-4
MEAN_MOTION_DDOT = 0

CCSDS_OMM_VERS = 2.0
CREATION_DATE  = 
ORIGINATOR     = 

OBJECT_NAME    = STARLINK-37123
OBJECT_ID      = 2026-055P
CENTER_NAME    = EARTH
REF_FRAME      = TEME
TIME_SYSTEM    = UTC
MEAN_ELEMENT_THEORY = SGP/SGP4

EPOCH          = 2026-04-03T12:00:01.999296
MEAN_MOTION    = 15.80882024
ECCENTRICITY   = .0001214
INCLINATION    = 53.1591
RA_OF_ASC_NODE = 212.8424
ARG_OF_PERICENTER = 76.2044
MEAN_ANOMALY   = 48.9529

EPHEMERIS_TYPE = 0
CLASSIFICATION_TYPE = U
NORAD_CAT_ID   = 68275
ELEMENT_SET_NO = 999
REV_AT_EPOCH   = 362
BSTAR          = -.59599E-5
MEAN_MOTION_DOT = -.1876E-4
MEAN_MOTION_DDOT = 0

CCSDS_OMM_VERS = 2.0
CREATION_DATE  = 
ORIGINATOR     = 

OBJECT_NAME    = STARLINK-37125
OBJECT_ID      = 2026-055Q
CENTER_NAME    = EARTH
REF_FRAME      = TEME
TIME_SYSTEM    = UTC
MEAN_ELEMENT_THEORY = SGP/SGP4

EPOCH          = 2026-04-03T12:00:01.999296
MEAN_MOTION    = 15.80911536
ECCENTRICITY   = .0001295
INCLINATION    = 53.1592
RA_OF_ASC_NODE = 212.8334
ARG_OF_PERICENTER = 86.6308
MEAN_ANOMALY   = 42.7839

EPHEMERIS_TYPE = 0
CLASSIFICATION_TYPE = U
NORAD_CAT_ID   = 68276
ELEMENT_SET_NO = 999
REV_AT_EPOCH   = 362
BSTAR          = -.2846E-3
MEAN_MOTION_DOT = -.56605E-3
MEAN_MOTION_DDOT = 0

CCSDS_OMM_VERS = 2.0
CREATION_DATE  = 
ORIGINATOR     = 

OBJECT_NAME    = STARLINK-36989
OBJECT_ID      = 2026-055R
CENTER_NAME    = EARTH
REF_FRAME      = TEME
TIME_SYSTEM    = UTC
MEAN_ELEMENT_THEORY = SGP/SGP4

EPOCH          = 2026-04-03T12:00:01.999296
MEAN_MOTION    = 15.80889843
ECCENTRICITY   = .0000758
INCLINATION    = 53.1591
RA_OF_ASC_NODE = 212.8067
ARG_OF_PERICENTER = 59.1012
MEAN_ANOMALY   = 83.1218

EPHEMERIS_TYPE = 0
CLASSIFICATION_TYPE = U
NORAD_CAT_ID   = 68277
ELEMENT_SET_NO = 999
REV_AT_EPOCH   = 362
BSTAR          = .7931E-4
MEAN_MOTION_DOT = .14994E-3
MEAN_MOTION_DDOT = 0

CCSDS_OMM_VERS = 2.0
CREATION_DATE  = 
ORIGINATOR     = 

OBJECT_NAME    = STARLINK-36982
OBJECT_ID      = 2026-055S
CENTER_NAME    = EARTH
REF_FRAME      = TEME
TIME_SYSTEM    = UTC
MEAN_ELEMENT_THEORY = SGP/SGP4

EPOCH          = 2026-04-03T12:00:01.999296
MEAN_MOTION    = 15.80891580
ECCENTRICITY   = .0000764
INCLINATION    = 53.1590
RA_OF_ASC_NODE = 212.8163
ARG_OF_PERICENTER = 58.1655
MEAN_ANOMALY   = 79.7826

EPHEMERIS_TYPE = 0
CLASSIFICATION_TYPE = U
NORAD_CAT_ID   = 68278
ELEMENT_SET_NO = 999
REV_AT_EPOCH   = 362
BSTAR          = .94348E-4
MEAN_MOTION_DOT = .17977E-3
MEAN_MOTION_DDOT = 0

CCSDS_OMM_VERS = 2.0
CREATION_DATE  = 
ORIGINATOR     = 

OBJECT_NAME    = STARLINK-36934
OBJECT_ID      = 2026-055T
CENTER_NAME    = EARTH
REF_FRAME      = TEME
TIME_SYSTEM    = UTC
MEAN_ELEMENT_THEORY = SGP/SGP4

EPOCH          = 2026-04-03T12:00:01.999296
MEAN_MOTION    = 15.80892428
ECCENTRICITY   = .0001376
INCLINATION    = 53.1590
RA_OF_ASC_NODE = 212.8252
ARG_OF_PERICENTER = 65.9531
MEAN_ANOMALY   = 67.7341

EPHEMERIS_TYPE = 0
CLASSIFICATION_TYPE = U
NORAD_CAT_ID   = 68279
ELEMENT_SET_NO = 999
REV_AT_EPOCH   = 362
BSTAR          = -.24495E-4
MEAN_MOTION_DOT = -.5535E-4
MEAN_MOTION_DDOT = 0

CCSDS_OMM_VERS = 2.0
CREATION_DATE  = 
ORIGINATOR     = 

OBJECT_NAME    = STARLINK-37070
OBJECT_ID      = 2026-055U
CENTER_NAME    = EARTH
REF_FRAME      = TEME
TIME_SYSTEM    = UTC
MEAN_ELEMENT_THEORY = SGP/SGP4

EPOCH          = 2026-04-03T12:00:01.999296
MEAN_MOTION    = 15.80860409
ECCENTRICITY   = .0001613
INCLINATION    = 53.1593
RA_OF_ASC_NODE = 212.7984
ARG_OF_PERICENTER = 80.9100
MEAN_ANOMALY   = 65.5632

EPHEMERIS_TYPE = 0
CLASSIFICATION_TYPE = U
NORAD_CAT_ID   = 68280
ELEMENT_SET_NO = 999
REV_AT_EPOCH   = 362
BSTAR          = .68334E-3
MEAN_MOTION_DOT = .136239E-2
MEAN_MOTION_DDOT = 0

